{"type":"FeatureCollection","features":[{"type":"Feature","geometry":{"type":"Polygon","coordinates":[[[-2.4137,42.802],[-2.4229,42.7991],[-2.4288,42.7994],[-2.4278,42.7973],[-2.4296,42.7939],[-2.434,42.7928],[-2.4354,42.7907],[-2.4407,42.7882],[-2.4466,42.7888],[-2.4548,42.787],[-2.4582,42.7849],[-2.4733,42.7836],[-2.4732,42.7819],[-2.4795,42.7804],[-2.4854,42.7813],[-2.4929,42.787],[-2.4988,42.7876],[-2.5017,42.7872],[-2.5056,42.7848],[-2.5114,42.7853],[-2.5129,42.784],[-2.5304,42.7823],[-2.5287,42.7745],[-2.5183,42.7702],[-2.5183,42.7678],[-2.5157,42.7651],[-2.5196,42.7643],[-2.5118,42.7645],[-2.5117,42.7593],[-2.5203,42.7534],[-2.5227,42.753],[-2.5232,42.7513],[-2.5295,42.7502],[-2.5268,42.7406],[-2.5187,42.7308],[-2.5185,42.7261],[-2.521,42.7257],[-2.5223,42.7222],[-2.5189,42.7226],[-2.5193,42.7202],[-2.5164,42.7193],[-2.5144,42.7193],[-2.5155,42.722],[-2.5126,42.7224],[-2.5086,42.7201],[-2.5035,42.712],[-2.5093,42.7091],[-2.5097,42.7074],[-2.5062,42.7058],[-2.5057,42.7037],[-2.5007,42.7021],[-2.4997,42.6997],[-2.4958,42.7001],[-2.4889,42.6975],[-2.4766,42.6953],[-2.4736,42.693],[-2.4697,42.694],[-2.4619,42.6918],[-2.4593,42.6887],[-2.4617,42.6863],[-2.4591,42.6805],[-2.4556,42.6786],[-2.4429,42.6791],[-2.4409,42.6778],[-2.4395,42.6781],[-2.4409,42.6771],[-2.4399,42.6754],[-2.436,42.6758],[-2.4342,42.6806],[-2.4318,42.681],[-2.4268,42.6794],[-2.4284,42.6828],[-2.4251,42.688],[-2.4222,42.6883],[-2.4194,42.6915],[-2.4164,42.6915],[-2.4152,42.7011],[-2.4233,42.7099],[-2.4136,42.7121],[-2.4137,42.7148],[-2.4103,42.7176],[-2.4109,42.7214],[-2.4087,42.7286],[-2.4063,42.7293],[-2.4048,42.7283],[-2.3984,42.7281],[-2.3873,42.7334],[-2.3814,42.7307],[-2.3785,42.7308],[-2.3762,42.7366],[-2.3738,42.738],[-2.3765,42.7452],[-2.373,42.7445],[-2.3721,42.7456],[-2.3814,42.7465],[-2.3776,42.7496],[-2.3776,42.7523],[-2.3747,42.7531],[-2.3738,42.7558],[-2.3719,42.7569],[-2.369,42.7566],[-2.3622,42.7601],[-2.3604,42.7632],[-2.3584,42.7633],[-2.373,42.7767],[-2.3692,42.7802],[-2.3674,42.7864],[-2.364,42.7868],[-2.3679,42.7877],[-2.3675,42.7901],[-2.3695,42.7915],[-2.3722,42.8007],[-2.3893,42.8],[-2.4137,42.802]]]},"properties":{"id":"alava-arraia","nombre":"Coto de setas de Arraia-Maeztu (Izki)","tipo":"acotado","precision":"aproximado","zona":"alava","normas":["alava-coto-arraia","alava-foral"],"permisoUrl":"https://www.arraia-maeztu.eus/servicios/coto-de-setas/","regimenConfirmado":false,"nota":"Digitalizado el 2026-09-30 a partir del plano oficial: contorno extraído por umbral de la línea negra y georreferenciado por ajuste afín con los núcleos rotulados (error típico 200-600 m). Escala orientativa, no sirve para saber si una finca concreta está dentro. Tarifas oficiales de 2017.","fuente":"https://www.arraia-maeztu.eus/wp-content/uploads/2019/01/coto-setas-maeztu-17-03-29-Plano.jpg","revisado":"2026-09-30"}},{"type":"Feature","geometry":{"type":"MultiPolygon","coordinates":[[[[-3.1865,42.8751],[-3.1881,42.8722],[-3.1913,42.8734],[-3.1913,42.8718],[-3.1886,42.8718],[-3.1891,42.869],[-3.1837,42.8666],[-3.1728,42.8569],[-3.1632,42.857],[-3.1643,42.861],[-3.1605,42.8602],[-3.1589,42.8627],[-3.1649,42.8667],[-3.1666,42.8723],[-3.1714,42.8727],[-3.1741,42.8707],[-3.174,42.8686],[-3.1757,42.8686],[-3.1827,42.8743],[-3.1865,42.8751]]],[[[-3.1307,42.8373],[-3.1323,42.8357],[-3.1317,42.8328],[-3.1269,42.8292],[-3.1247,42.8296],[-3.1247,42.8317],[-3.1226,42.8301],[-3.1231,42.8284],[-3.1312,42.8284],[-3.1349,42.8308],[-3.1339,42.8332],[-3.1376,42.832],[-3.1371,42.8332],[-3.143,42.8332],[-3.143,42.8312],[-3.1462,42.8295],[-3.1456,42.8271],[-3.1499,42.8198],[-3.1482,42.8137],[-3.1594,42.8043],[-3.1556,42.8007],[-3.1507,42.8003],[-3.1486,42.7979],[-3.141,42.7951],[-3.1318,42.7879],[-3.1243,42.7883],[-3.1285,42.7843],[-3.1364,42.7644],[-3.1428,42.7611],[-3.1465,42.7562],[-3.1443,42.7562],[-3.139,42.7607],[-3.1352,42.7603],[-3.1342,42.7615],[-3.1336,42.7595],[-3.1374,42.7567],[-3.1282,42.7571],[-3.1208,42.7628],[-3.1207,42.7592],[-3.1191,42.758],[-3.1143,42.758],[-3.1073,42.7637],[-3.1041,42.7633],[-3.1009,42.7662],[-3.0961,42.7662],[-3.0961,42.7687],[-3.095,42.7654],[-3.0896,42.7634],[-3.0874,42.7586],[-3.0858,42.7582],[-3.0843,42.7703],[-3.0768,42.768],[-3.0757,42.772],[-3.0741,42.7716],[-3.0731,42.7732],[-3.0732,42.783],[-3.0716,42.783],[-3.0727,42.789],[-3.063,42.7883],[-3.063,42.7899],[-3.0727,42.7894],[-3.0722,42.7923],[-3.069,42.7927],[-3.0685,42.7947],[-3.0706,42.7951],[-3.074,42.8056],[-3.0772,42.8081],[-3.081,42.808],[-3.0821,42.8096],[-3.0885,42.8096],[-3.0912,42.8112],[-3.0902,42.8149],[-3.087,42.8165],[-3.0902,42.8205],[-3.1015,42.8217],[-3.1043,42.8249],[-3.1112,42.8249],[-3.1113,42.8281],[-3.121,42.8325],[-3.1243,42.8369],[-3.1307,42.8373]]]]},"properties":{"id":"alava-arcena","nombre":"Consierra de Árcena (Sierra de Árcena)","tipo":"acotado","precision":"aproximado","zona":"alava","normas":["alava-consierra-arcena","alava-foral"],"permisoUrl":"https://web.araba.eus/es/montes/aprovechamiento-de-hongos-flores-y-frutos-silvestres","regimenConfirmado":false,"nota":"Digitalizado el 2026-09-30 a partir del plano oficial: contorno extraído por umbral de la línea negra y georreferenciado por ajuste afín con los núcleos rotulados (error típico 200-600 m). Escala orientativa, no sirve para saber si una finca concreta está dentro. Se dibujan las manchas del plano (dos polígonos); no se separan los enclaves interiores.","fuente":"https://web.araba.eus/documents/1247685/1248298/Sierra+Arcena.pdf/affa9c4a-f370-71c1-b671-4c305e8fba30?t=1570428548587","revisado":"2026-09-30"}}]}